
# C41 (GNSS)
1 44864U 19090A   25207.24330642 -.00000040  00000+0  00000+0 0  9998
2 44864  56.2681  73.5870 0016272 291.3995 233.7915  1.86231659 38161

# C42 (GNSS)
1 44865U 19090B   25207.16712766 -.00000040  00000+0  00000+0 0  9991
2 44865  56.2697  73.6236 0014192 306.8089 256.9424  1.86231568 38139

# C60 (GNSS)
1 45344U 20017A   25207.06762682 -.00000153  00000+0  00000+0 0  9991
2 45344   2.9397  41.2424 0001499  88.0070 279.1226  1.00271450 20006

# C61 (GNSS)
1 45807U 20040A   25206.93088770 -.00000366  00000+0  00000+0 0  9991
2 45807   1.6513  64.8626 0004522 340.5083 344.1259  1.00275689 18791

# C62 (GNSS)
1 56564U 23066A   25207.16433595 -.00000123  00000+0  00000+0 0  9990
2 56564   1.1327 293.8514 0006592 196.4581  32.8620  1.00270071  8131

# C50 (GNSS)
1 58654U 23207A   25207.36637410 -.00000043  00000+0  00000+0 0  9994
2 58654  55.4573  73.3189 0001848 358.0223   2.0551  1.86229951 10775

# E24 (GNSS)
1 40889U 15045A   25205.92220142  .00000049  00000+0  00000+0 0  9991
2 40889  55.0546 230.6438 0002909  12.8816 347.1860  1.70473608 61437

# E30 (GNSS)
1 40890U 15045B   25207.31601696  .00000041  00000+0  00000+0 0  9997
2 40890  55.0531 230.6007 0001573 325.3153  34.7247  1.70473615 61488

# E07 (GNSS)
1 41859U 16069A   25206.01843388 -.00000031  00000+0  00000+0 0  9992
2 41859  55.2950 110.1491 0003917 339.4838  20.5293  1.70473608 53825

# E08 (GNSS)
1 41175U 15079B   25205.35843045 -.00000033  00000+0  00000+0 0  9991
2 41175  55.6263 110.2611 0004452 334.9723  25.0303  1.70473695 59600

# E09 (GNSS)
1 41174U 15079A   25206.89820807 -.00000027  00000+0  00000+0 0  9994
2 41174  55.6281 110.2215 0004329 345.7927  14.2303  1.70473707 59792

# E01 (GNSS)
1 41550U 16030B   25206.32632808  .00000046  00000+0  00000+0 0  9990
2 41550  55.2021 230.6811 0004546 239.6231 120.3894  1.70473848 57098

# E02 (GNSS)
1 41549U 16030A   25200.78933288  .00000077  00000+0  00000+0 0  9992
2 41549  55.2044 230.8354 0002782 317.3333  42.7178  1.70473521 57003

# E03 (GNSS)
1 41860U 16069B   25205.28557726 -.00000034  00000+0  00000+0 0  9993
2 41860  55.2930 110.1649 0003830 339.7919  20.2165  1.70473728 54062

# E04 (GNSS)
1 41861U 16069C   25207.41325130 -.00000026  00000+0  00000+0 0  9994
2 41861  55.2960 110.1134 0003998 306.4642  53.5371  1.70474298 54098

# E05 (GNSS)
1 41862U 16069D   25206.97243911 -.00000028  00000+0  00000+0 0  9993
2 41862  55.2943 110.1186 0002960 317.6234  42.3892  1.70473861 54084

# E21 (GNSS)
1 43055U 17079A   25205.70253705  .00000051  00000+0  00000+0 0  9998
2 43055  55.1799 230.5162 0003554 260.7408  99.2805  1.70474356 47403

# E25 (GNSS)
1 43056U 17079B   25207.16706787  .00000042  00000+0  00000+0 0  9994
2 43056  55.1813 230.4759 0004825 271.3000  88.6958  1.70474523 47418

# E27 (GNSS)
1 43057U 17079C   25206.21456145  .00000047  00000+0  00000+0 0  9995
2 43057  55.1787 230.5000 0004041 281.8381  78.1744  1.70474528 47419

# E31 (GNSS)
1 43058U 17079D   25205.84805213  .00000050  00000+0  00000+0 0  9992
2 43058  55.1791 230.5077 0005297 268.7954  91.2044  1.70474424 47439

# E36 (GNSS)
1 43566U 18060C   25206.19104919 -.00000108  00000+0  00000+0 0  9996
2 43566  57.2679 350.6152 0001841 283.2432  76.7226  1.70476059 43615

# E13 (GNSS)
1 43567U 18060D   25207.58507723 -.00000108  00000+0  00000+0 0  9991
2 43567  57.2647 350.5773 0002157 276.2593  83.7042  1.70476025 43617

# E15 (GNSS)
1 43564U 18060A   25206.92377529 -.00000108  00000+0  00000+0 0  9994
2 43564  57.2627 350.5910 0002734 274.2029  85.7529  1.70476120 43605

# E33 (GNSS)
1 43565U 18060B   25204.79657108 -.00000106  00000+0  00000+0 0  9990
2 43565  57.2665 350.6511 0002929 227.9603 132.0019  1.70475817 43618

# E34 (GNSS)
1 49809U 21116A   25207.42069906 -.00000108  00000+0  00000+0 0  9991
2 49809  57.2544 350.4734 0002661 190.5285 159.2146  1.70476215 22623

# E10 (GNSS)
1 49810U 21116B   25206.95749449 -.00000108  00000+0  00000+0 0  9997
2 49810  57.2554 350.4845 0002156 179.3713 358.6573  1.70476277 22637

# R01 (GNSS)
1 36111U 09070A   25207.89558738 -.00000013  00000+0  00000+0 0  9990
2 36111  64.8181  82.0849 0003219 339.6715 202.5966  2.13103733121537

# R02 (GNSS)
1 39155U 13019A   25201.14485159 -.00000033  00000+0  00000+0 0  9999
2 39155  65.2328  84.7632 0022304 231.4570 128.4020  2.13104555 95203

# R03 (GNSS)
1 37867U 11064A   25203.75394284 -.00000020  00000+0  00000+0 0  9998
2 37867  65.0804  84.0089 0021837 235.5155 278.9473  2.13101483106743

# R04 (GNSS)
1 44850U 19088A   25203.60791155 -.00000021  00000+0  00000+0 0  9995
2 44850  65.3796  84.7450 0012063 255.0509 104.8833  2.13101950 43696

# R05 (GNSS)
1 43508U 18053A   25206.00981101 -.00000007  00000+0  00000+0 0  9998
2 43508  65.3935  84.8354 0006779 227.0809 132.9395  2.13102204 55302

# R06 (GNSS)
1 36112U 09070B   25207.25499477 -.00000010  00000+0  00000+0 0  9992
2 36112  64.8031  81.9572 0004420 131.7744  49.4870  2.13101207121526

# R07 (GNSS)
1 37868U 11064B   25207.28897818 -.00000009  00000+0  00000+0 0  9999
2 37868  65.0890  83.9654 0018905 236.0569 290.5551  2.13103058106806

# R08 (GNSS)
1 37869U 11064C   25207.40916626 -.00000009  00000+0  00000+0 0  9993
2 37869  65.0960  83.9800 0023939 251.1274 324.2684  2.13101873106818

# R09 (GNSS)
1 40315U 14075A   25206.69611269  .00000040  00000+0  00000+0 0  9997
2 40315  63.6179 201.6735 0021860 212.0054 147.8640  2.13101414 82896

# R10 (GNSS)
1 32395U 07065C   25207.44645898  .00000040  00000+0  00000+0 0  9996
2 32395  64.3269 202.9711 0016752 352.8184 182.4099  2.13100163136772

# R11 (GNSS)
1 46805U 20075A   25203.05217963  .00000091  00000+0  00000+0 0  9990
2 46805  64.5988 203.4927 0009187 240.9653 118.9697  2.13100080 36876

# R12 (GNSS)
1 44299U 19030A   25203.17491104  .00000089  00000+0  00000+0 0  9995
2 44299  64.3687 203.7280 0013567 276.8338 127.6385  2.13102113 47899

# R13 (GNSS)
1 32393U 07065A   25207.16294990  .00000041  00000+0  00000+0 0  9997
2 32393  64.3182 202.9120 0000794 321.3413 222.6911  2.13101347136857

# R14 (GNSS)
1 42939U 17055A   25206.98787976  .00000041  00000+0  00000+0 0  9994
2 42939  64.0796 202.9865 0010618 241.2401 118.6568  2.13101925 61021

# R15 (GNSS)
1 43687U 18086A   25207.04600333  .00000041  00000+0  00000+0 0  9999
2 43687  64.2954 203.6061 0011932 257.9638 101.9071  2.13102029 52336

# R16 (GNSS)
1 54377U 22161A   25206.16697383  .00000046  00000+0  00000+0 0  9994
2 54377  64.7407 203.5659 0011926 225.3444 134.5673  2.13102056 20662

# R17 (GNSS)
1 41330U 16008A   25207.61848009 -.00000078  00000+0  00000+0 0  9992
2 41330  65.2109 324.1663 0012003 203.0663 156.8944  2.13102637 73683

# R18 (GNSS)
1 39620U 14012A   25207.20280665 -.00000078  00000+0  00000+0 0  9997
2 39620  65.4837 325.0004 0010682 316.7689  43.1590  2.13103233 88293

# R19 (GNSS)
1 54031U 22130A   25205.85308046 -.00000083  00000+0  00000+0 0  9999
2 54031  64.4589 326.0961 0012735 181.0048 178.9993  2.13101610 21710

# R20 (GNSS)
1 32276U 07052B   25207.34224756 -.00000080  00000+0  00000+0 0  9990
2 32276  65.7717 327.0059 0007733 320.8960  54.4090  2.13103155138150

# R21 (GNSS)
1 40001U 14032A   25207.84608736 -.00000078  00000+0  00000+0 0  9997
2 40001  65.4194 324.7519 0008191 193.5423 166.4502  2.13105919 86529

# R22 (GNSS)
1 52984U 22075A   25207.44204174 -.00000081  00000+0  00000+0 0  9994
2 52984  64.4858 325.9461 0011316 272.8102  87.0721  2.13102212 23766

# R23 (GNSS)
1 36402U 10007C   25202.84966546 -.00000083  00000+0  00000+0 0  9992
2 36402  65.6074 325.6289 0001577 150.2521 248.7201  2.13106175119782

# R24 (GNSS)
1 45358U 20018A   25203.33487749 -.00000083  00000+0  00000+0 0  9993
2 45358  64.5505 323.9961 0009599 232.6715 127.2447  2.13102424 41633

# R25 (GNSS)
1 32275U 07052A   25207.25052832 -.00000080  00000+0  00000+0 0  9993
2 32275  65.7561 326.8875 0003638 210.4703 149.5181  2.13104172138155
